OBJECT_NAME,OBJECT_ID,EPOCH,MEAN_MOTION,ECCENTRICITY,INCLINATION,RA_OF_ASC_NODE,ARG_OF_PERICENTER,MEAN_ANOMALY,EPHEMERIS_TYPE,CLASSIFICATION_TYPE,NORAD_CAT_ID,ELEMENT_SET_NO,REV_AT_EPOCH,BSTAR,MEAN_MOTION_DOT,MEAN_MOTION_DDOT
HAIYANG-2D,2021-043A,2026-06-07T07:34:45.660000,13.83375630,.00113658,65.9998,329.2761,270.3809,89.5957,0,U,48621,999,25518,.10189242E-3,.31E-6,0
2021-050D,2021-050D,2026-06-07T06:50:31.737984,15.23234939,.00042524,97.3331,234.5470,310.7138,49.3729,0,U,48843,999,27745,.30940551E-3,.726E-4,0
TYVAK-0173,2021-059P,2026-06-07T00:02:05.591040,14.81858069,.00108743,96.0081,236.8901,69.7395,290.4991,0,U,48892,999,26673,.25773334E-3,.2007E-4,0
MANDRAKE 2 ABLE,2021-059AE,2026-06-07T06:18:12.063168,15.54587565,.00053066,97.7041,347.2932,42.2126,317.9535,0,U,48907,999,27558,.34108804E-3,.22461E-3,0
MANDRAKE 2 BAKER,2021-059AF,2026-06-07T06:53:34.572480,15.59056964,.00037669,97.7014,350.1231,42.8241,317.3307,0,U,48908,999,27575,.34432514E-3,.26776E-3,0
PACE-1,2021-059AG,2026-06-05T11:49:11.428896,15.77832820,.00009943,97.6772,353.3326,9.7310,350.3975,0,U,48909,999,27595,.46410151E-3,.78298E-3,0
YAM-3,2021-059AN,2026-06-07T05:52:11.051040,15.48332956,.00058696,97.6995,344.5523,44.4418,315.7301,0,U,48915,999,27545,.24620464E-3,.12928E-3,0
FARADAY_PHOENIX,2021-059AX,2026-06-06T11:50:17.798784,15.75765489,.0002679,97.6829,354.3538,5.5188,354.6105,0,U,48924,999,27597,.93491E-3,.145325E-2,0
DEMO8 (TENZING),2021-059CA,2026-06-07T06:22:39.363168,15.54616927,.00070786,97.7036,350.9325,32.4559,327.7128,0,U,48951,999,27576,.32673485E-3,.21542E-3,0
NAPA-2,2021-059CN,2026-06-07T05:39:21.170016,15.94687311,.00023575,97.6748,356.0209,257.4816,102.6195,0,U,48963,999,27622,.68299448E-3,.258058E-2,.27990091E-4
FENGYUN 3E,2021-062A,2026-06-07T06:22:49.883232,14.19904198,.00027022,98.7496,161.7848,101.8173,258.3307,0,U,49008,999,25517,.10406164E-3,.177E-5,0
ISS (NAUKA),2021-066A,2026-06-06T20:52:03.052128,15.49642340,.00069776,51.6338,351.1688,142.0049,218.1433,0,U,49044,999,60649,.17236766E-3,.9276E-4,0
STARLINK-3100,2021-082Q,2026-06-07T00:37:50.782080,14.98321561,.000321,70.0002,69.1999,268.6479,91.4312,0,U,49144,999,25936,.14002367E-3,.1578E-4,0
CUTE,2021-088D,2026-06-07T00:03:43.961760,15.90056250,.0007653,97.4172,256.3356,252.2092,107.8346,0,U,49263,999,26093,.8008593E-3,.23872E-2,.22842858E-4
2021-091B,2021-091B,2026-06-07T07:22:51.441312,15.18504995,.00151017,97.4481,346.0330,76.6104,283.6813,0,U,49316,999,25748,.17146612E-3,.3479E-4,0
SDGSAT 1,2021-100A,2026-06-07T06:57:06.069312,15.19878475,.00073056,97.2634,205.6066,340.2951,19.8001,0,U,49387,999,25441,.15319424E-3,.3224E-4,0
TEIKYOSAT-4 (OORURI),2021-102B,2026-06-06T15:31:34.160160,15.09469967,.00112319,97.3670,187.5401,336.8376,23.2346,0,U,49396,999,25113,.12986867E-3,.2021E-4,0
Z-SAT,2021-102E,2026-06-07T04:19:04.517760,15.18191196,.00148961,97.3327,193.8072,284.3619,75.5962,0,U,49399,999,25192,.28999704E-3,.5879E-4,0
HIBARI,2021-102F,2026-06-07T00:14:36.190176,15.31524750,.00102795,97.3243,204.0310,230.6583,129.3748,0,U,49400,999,25263,.41658137E-3,.12632E-3,0
KOSEN-1,2021-102H,2026-06-06T15:43:28.600896,15.26688334,.00122643,97.3192,200.0180,240.6044,119.3971,0,U,49402,999,25241,.34214881E-3,.8931E-4,0
GLOBAL-14,2021-106A,2026-06-07T05:30:46.801440,15.50106555,.00172915,42.0052,350.2362,311.1284,48.8067,0,U,49469,999,25658,.47506235E-3,.27368E-3,0
GAOFEN-3 02,2021-109A,2026-06-07T06:23:55.954176,14.42215842,.00035563,98.4090,166.5045,39.5264,320.6184,0,U,49495,999,23888,.22944267E-4,.32E-6,0
GLOBAL-12,2021-115BA,2026-06-07T02:24:26.496288,15.52953568,.00034616,53.1947,93.0182,48.1122,312.0184,0,U,49772,999,25433,.55596107E-3,.34905E-3,0
GLOBAL-13,2021-115BB,2026-06-06T03:05:14.902080,15.45603256,.00042113,53.1974,107.1404,83.2774,276.8714,0,U,49773,999,25405,.58805237E-3,.28437E-3,0
GLOBAL-17,2021-120A,2026-06-05T04:23:50.226144,15.51596573,.00134358,41.9945,120.7885,176.8252,183.2680,0,U,49949,999,25303,.38490008E-3,.23266E-3,0
GLOBAL-16,2021-120B,2026-06-07T04:17:19.711968,15.49697669,.0011718,41.9946,112.4557,182.9262,177.1515,0,U,49950,999,25329,.46399195E-3,.26246E-3,0
XW-3 (CAS-9),2021-131B,2026-06-07T06:23:43.416672,14.41348740,.00051696,98.4974,250.7100,119.0560,241.1148,0,U,50466,999,23368,.1986671E-3,.599E-5,0
ION SCV-004,2022-002K,2026-06-06T23:15:50.520672,15.30350840,.00082599,97.2835,215.8204,41.7873,318.3997,0,U,50993,999,24373,.21459539E-3,.623E-4,0
ETV-A1,2022-002CE,2026-06-07T03:22:52.481280,15.40473352,.00056385,97.2877,224.4765,38.3511,321.8136,0,U,51060,999,24429,.30461572E-3,.12272E-3,0
BRO-5,2022-002CF,2026-06-07T06:58:04.548288,15.46823202,.00045389,97.2995,231.8757,15.2294,344.9092,0,U,51061,999,24472,.61210345E-3,.30711E-3,0
