0 FARADAY_PHOENIX
1 48924U 21059AX  26157.49326156  .00145325  00000-0  93491-3 0  9990
2 48924  97.6829 354.3538 0002679   5.5188 354.6105 15.75765489275973
0 DEMO8(TENZING)
1 48951U 21059CA  26158.26573337  .00021542  00000-0  32673-3 0  9990
2 48951  97.7036 350.9325 0007079  32.4559 327.7128 15.54616927275762
0 FENGYUN 3E
1 49008U 21062A   26158.26585513  .00000177  00000-0  10406-3 0  9998
2 49008  98.7496 161.7848 0002702 101.8173 258.3307 14.19904198255177
0 ISS (NAUKA)
1 49044U 21066A   26157.86947977  .00009276  00000-0  17237-3 0  9991
2 49044  51.6338 351.1688 0006978 142.0049 218.1433 15.49642340606496
0 CUTE-LASP
1 49263U 21088D   26158.00259215  .00238720  22843-4  80086-3 0  9999
2 49263  97.4172 256.3356 0007653 252.2092 107.8346 15.90056250260931
0 TYVAK-0173
1 48892U 21059P   26158.00145360  .00002007  00000-0  25773-3 0  9995
2 48892  96.0081 236.8901 0010874  69.7395 290.4991 14.81858069266733
0 NAPA-2
1 48963U 21059CN  26158.23566169  .00258058  27990-4  68299-3 0  9993
2 48963  97.6748 356.0209 0002358 257.4816 102.6195 15.94687311276227
0 MANDRAKE 2 ABLE
1 48907U 21059AE  26158.26263962  .00022461  00000-0  34109-3 0  9998
2 48907  97.7041 347.2932 0005307  42.2126 317.9535 15.54587565275581
0 MANDRAKE 2 BAKER
1 48908U 21059AF  26158.28720570  .00026776  00000-0  34433-3 0  9997
2 48908  97.7014 350.1231 0003767  42.8241 317.3307 15.59056964275758
0 Z-SAT
1 49399U 21102E   26158.17991340  .00005879  00000-0  29000-3 0  9999
2 49399  97.3327 193.8072 0014896 284.3619  75.5962 15.18191196251923
0 TEIKYOSAT-4 (OORURI)
1 49396U 21102B   26157.64692315  .00002021  00000-0  12987-3 0  9999
2 49396  97.3670 187.5401 0011232 336.8376  23.2346 15.09469967251134
0 KOSEN-1
1 49402U 21102H   26157.65519214  .00008931  00000-0  34215-3 0  9998
2 49402  97.3192 200.0180 0012264 240.6044 119.3971 15.26688334252419
0 XW-3 (CAS 9)
1 50466U 21131B   26158.26647473  .00000599  00000-0  19867-3 0  9997
2 50466  98.4974 250.7100 0005170 119.0560 241.1148 14.41348740233683
0 BRO-5
1 51061U 22002CF  26158.29033042  .00030711  00000-0  61210-3 0  9999
2 51061  97.2995 231.8757 0004539  15.2294 344.9092 15.46823202244726
0 ION SCV-004
1 50993U 22002K   26157.96933473  .00006230  00000-0  21460-3 0  9994
2 50993  97.2835 215.8204 0008260  41.7873 318.3997 15.30350840243738
0 YAM-3
1 48915U 21059AN  26158.24457235  .00012928  00000-0  24620-3 0  9997
2 48915  97.6995 344.5523 0005870  44.4418 315.7301 15.48332956275454
0 STARLINK-3100
1 49144U 21082Q   26158.02628220  .00001578  00000-0  14002-3 0  9990
2 49144  70.0002  69.1999 0003210 268.6479  91.4312 14.98321561259369
0 ETV-A1
1 51060U 22002CE  26158.14088520  .00012272  00000-0  30462-3 0  9990
2 51060  97.2877 224.4765 0005638  38.3511 321.8136 15.40473352244296
0 GLOBAL-13
1 49773U 21115BB  26157.12864470  .00028437  00000-0  58805-3 0  9996
2 49773  53.1974 107.1404 0004211  83.2774 276.8714 15.45603256254055
0 GLOBAL-12
1 49772U 21115BA  26158.10030667  .00034905  00000-0  55596-3 0  9998
2 49772  53.1947  93.0182 0003462  48.1122 312.0184 15.52953568254331
0 HAIYANG 2D
1 48621U 21043A   26158.31580625  .00000031  00000-0  10189-3 0  9999
2 48621  65.9998 329.2761 0011366 270.3809  89.5957 13.83375630255188
0 SDGSAT 1
1 49387U 21100A   26158.28965358  .00003224  00000-0  15319-3 0  9996
2 49387  97.2634 205.6066 0007306 340.2951  19.8001 15.19878475254419
0 GLOBAL-14
1 49469U 21106A   26158.22970835  .00027368  00000-0  47506-3 0  9991
2 49469  42.0052 350.2362 0017291 311.1284  48.8067 15.50106555256580
0 GLOBAL-16
1 49950U 21120B   26158.17870037  .00026246  00000-0  46399-3 0  9992
2 49950  41.9946 112.4557 0011718 182.9262 177.1515 15.49697669253295
0 GAOFEN 3 02
1 49495U 21109A   26158.26661984  .00000032  00000-0  22944-4 0  9998
2 49495  98.4090 166.5045 0003556  39.5264 320.6184 14.42215842238884
0 OBJECT B
1 49316U 21091B   26158.30753983  .00003479  00000-0  17147-3 0  9992
2 49316  97.4481 346.0330 0015102  76.6104 283.6813 15.18504995257484
0 GLOBAL-17
1 49949U 21120A   26156.18322021  .00023266  00000-0  38490-3 0  9996
2 49949  41.9945 120.7885 0013436 176.8252 183.2680 15.51596573253036
0 PACE-1
1 48909U 21059AG  26156.49249339  .00078298  00000-0  46410-3 0  9992
2 48909  97.6772 353.3326 0000994   9.7310 350.3975 15.77832820275950
0 OBJECT D
1 48843U 21050D   26158.28508956  .00007260  00000-0  30941-3 0  9995
2 48843  97.3331 234.5470 0004252 310.7138  49.3729 15.23234939277456
0 HIBARI
1 49400U 21102F   26158.01014109  .00012632  00000-0  41658-3 0  9992
2 49400  97.3243 204.0310 0010279 230.6583 129.3748 15.31524750252638
